STARLINK-4625           
1 53683U 22105AM  23331.64215652 -.00004744  00000+0 -36508-3 0  9993
2 53683  97.6520 210.3674 0002665 100.3049 259.8475 15.01246687 68256
STARLINK-4624           
1 53684U 22105AN  23331.66067329 -.00000478  00000+0 -32646-4 0  9992
2 53684  97.6523 210.4544 0005309  64.7996 295.3778 15.01233408 68257
STARLINK-4626           
1 53685U 22105AP  23331.63685061 -.00005571  00000+0 -42965-3 0  9992
2 53685  97.6538 210.3677 0002219  88.2827 271.8651 15.01241657 68255
STARLINK-4467           
1 53686U 22105AQ  23331.67548674  .00002413  00000+0  19246-3 0  9991
2 53686  97.6521 210.4805 0006373  80.4905 279.7039 15.01237566 68260
STARLINK-4569           
1 53687U 22105AR  23331.63660668 -.00004505  00000+0 -34653-3 0  9991
2 53687  97.6545 210.3657 0001749  83.2325 276.9099 15.01240619 68257
STARLINK-4571           
1 53688U 22105AS  23331.63105213 -.00004229  00000+0 -32498-3 0  9990
2 53688  97.6543 210.3592 0002679  90.3737 269.7794 15.01243749 68252
STARLINK-4562           
1 53689U 22105AT  23331.61833947 -.00002535  00000+0 -19280-3 0  9993
2 53689  97.6533 210.3917 0004250  95.6096 264.5613 15.01253345 68533
STARLINK-4570           
1 53690U 22105AU  23331.65326681 -.00000842  00000+0 -60967-4 0  9999
2 53690  97.6528 210.3256 0003811  96.3949 263.7709 15.01246985 68250
STARLINK-4560           
1 53691U 22105AV  23331.63289792 -.00001992  00000+0 -15060-3 0  9999
2 53691  97.6547 210.3542 0002067  95.5488 264.5972 15.01237514 68250
STARLINK-4572           
1 53692U 22105AW  23331.62732840 -.00001854  00000+0 -13975-3 0  9996
2 53692  97.6581 210.3632 0002698  90.7398 269.4135 15.01262009 68539
STARLINK-4566           
1 53693U 22105AX  23331.62549430 -.00004161  00000+0 -31960-3 0  9996
2 53693  97.6554 210.3584 0003341 104.3676 255.7919 15.01249543 68258
YAOGAN-33 02            
1 53698U 22106A   23332.10827465  .00000444  00000+0  10346-3 0  9996
2 53698  98.1864 337.1595 0001348  58.3824 301.7508 14.59444097 65808
STARLINK-4725           
1 53700U 22107A   23331.41961807 -.00007859  00000+0 -47663-3 0  9994
2 53700  53.2187  24.4460 0001916  74.2585 285.8619 15.08807179 69067
STARLINK-4711           
1 53701U 22107B   23331.41592154 -.00006734  00000+0 -40559-3 0  9998
2 53701  53.2193  24.4182 0001547 110.1703 249.9456 15.08820267 69061
STARLINK-4724           
1 53702U 22107C   23331.97118131  .00002021  00000+0  14510-3 0  9990
2 53702  53.2176   7.2456 0001871  63.1643 296.9540 15.08833158 68604
STARLINK-4731           
1 53703U 22107D   23331.56313889 -.00001827  00000+0 -96745-4 0  9999
2 53703  53.2184  23.9131 0001621  99.9756 260.1419 15.08832111 69083
STARLINK-4714           
1 53704U 22107E   23331.47856178 -.00006602  00000+0 -39731-3 0  9990
2 53704  53.2185  24.8048 0001436 126.9605 233.1518 15.08822380 68907
STARLINK-4717           
1 53705U 22107F   23332.13727785 -.00002259  00000+0 -12387-3 0  9998
2 53705  53.2196  21.8086 0001395  91.0472 269.0680 15.08845000 68415
STARLINK-4716           
1 53706U 22107G   23331.59264258 -.00005957  00000+0 -35674-3 0  9991
2 53706  53.2193  24.0974 0001734  90.5654 269.5537 15.08813841 69085
STARLINK-4667           
1 53707U 22107H   23331.98224328 -.00000922  00000+0 -39864-4 0  9992
2 53707  53.2187   7.3047 0001528  91.8180 268.2987 15.08826582 68601
STARLINK-4694           
1 53708U 22107J   23331.96750740  .00001265  00000+0  97635-4 0  9992
2 53708  53.2173   7.2293 0001885  64.7679 295.3508 15.08822184 68601
STARLINK-4685           
1 53709U 22107K   23331.49093481 -.00004475  00000+0 -26339-3 0  9993
2 53709  53.2197  29.1891 0001575  74.1335 285.9831 15.08819954 68699
STARLINK-4627           
1 53711U 22107M   23331.43576465 -.00006688  00000+0 -40286-3 0  9993
2 53711  53.2192  29.5543 0001945  63.8931 296.2261 15.08804449 68687
STARLINK-4683           
1 53712U 22107N   23331.60866536 -.00007879  00000+0 -47784-3 0  9997
2 53712  53.2188  28.5118 0001642  88.3108 271.8072 15.08810506 68277
STARLINK-4698           
1 53713U 22107P   23332.14610984 -.00024807  00000+0 -15431-2 0  9995
2 53713  53.2186  31.1441 0002150  88.1784 271.9454 15.08905329 68282
STARLINK-4688           
1 53714U 22107Q   23331.49646740 -.00004369  00000+0 -25674-3 0  9994
2 53714  53.2176   9.2507 0001727  81.1088 279.0100 15.08818811 68972
STARLINK-4686           
1 53715U 22107R   23331.95966127 -.00000078  00000+0  13203-4 0  9998
2 53715  53.2186  32.1074 0001418 108.9154 251.1991 15.08833525 68245
STARLINK-4699           
1 53716U 22107S   23331.95598405 -.00002905  00000+0 -16457-3 0  9994
2 53716  53.2190  32.0868 0001497  78.3774 281.7386 15.08828816 68240
STARLINK-4695           
1 53718U 22107U   23332.14466731 -.00003177  00000+0 -18166-3 0  9995
2 53718  53.2175  31.8249 0001471 114.5915 245.5231 15.08831139 68268
STARLINK-4644           
1 53719U 22107V   23332.08018005  .00028945  00000+0  18292-2 0  9993
2 53719  53.2171   1.4747 0001634 103.5815 256.5359 15.08841685 68674
STARLINK-4642           
1 53720U 22107W   23331.49968410 -.00005540  00000+0 -33037-3 0  9996
2 53720  53.2194  34.2142 0001725  87.3553 272.7637 15.08825989 68637
STARLINK-4707           
1 53721U 22107X   23331.57327148 -.00003795  00000+0 -22051-3 0  9997
2 53721  53.2202  33.9585 0001521  86.6212 273.4954 15.08832206 68644
STARLINK-4700           
1 53722U 22107Y   23331.38191978 -.00007386  00000+0 -44667-3 0  9994
2 53722  53.2204  34.8926 0001772 104.0018 256.1171 15.08818302 68609
STARLINK-4705           
1 53723U 22107Z   23331.55485085 -.00006429  00000+0 -38642-3 0  9992
2 53723  53.2192  33.8494 0001456  94.6945 265.4213 15.08819410 68181
STARLINK-4663           
1 53724U 22107AA  23331.56959183 -.00006623  00000+0 -39865-3 0  9993
2 53724  53.2190  33.9365 0001549  89.5922 270.5247 15.08817716 68641
STARLINK-4697           
1 53726U 22107AC  23331.44448732 -.00009049  00000+0 -55163-3 0  9999
2 53726  53.2187  34.5829 0001647  76.6467 283.4709 15.08810293 68628
STARLINK-4701           
1 53727U 22107AD  23331.58802682 -.00004165  00000+0 -24380-3 0  9994
2 53727  53.2199  34.0513 0001332  91.8373 268.2772 15.08827819 68783
STARLINK-4640           
1 53728U 22107AE  23331.45183341 -.00003960  00000+0 -23082-3 0  9995
2 53728  53.2187  34.6250 0001776  95.4156 264.7038 15.08839077 68769
STARLINK-4651           
1 53729U 22107AF  23331.99651018 -.00001354  00000+0 -67051-4 0  9996
2 53729  53.2175  32.3405 0001443  84.0662 276.0495 15.08820800 68241
STARLINK-4641           
1 53730U 22107AG  23331.98914474 -.00002120  00000+0 -11518-3 0  9993
2 53730  53.2196  32.2996 0001799  73.0800 287.0389 15.08829932 68245
STARLINK-4636           
1 53731U 22107AH  23332.13267903  .00030837  00000+0  19472-2 0  9990
2 53731  53.2175  31.7698 0001724 109.2884 250.8295 15.08838707 68264
STARLINK-4661           
1 53732U 22107AJ  23331.99378769 -.00002646  00000+0 -14827-3 0  9996
2 53732  53.2184  32.3281 0001725  60.1271 299.9893 15.08821323 68248
STARLINK-4574           
1 53733U 22107AK  23331.47764032 -.00004847  00000+0 -28690-3 0  9990
2 53733  53.2187  34.7864 0001635 108.5494 251.5676 15.08803961 68790
STARLINK-4616           
1 53734U 22107AL  23331.99282662 -.00002388  00000+0 -13206-3 0  9997
2 53734  53.2197  32.3198 0001874 110.2107 249.9087 15.08824587 68246
STARLINK-4618           
1 53735U 22107AM  23332.10227304  .00022635  00000+0  14356-2 0  9995
2 53735  53.2177  41.5716 0001493  84.4140 275.7022 15.08842096 68127
STARLINK-4652           
1 53736U 22107AN  23332.13635757 -.00003463  00000+0 -19967-3 0  9998
2 53736  53.2186  31.7901 0001712 120.0847 240.0315 15.08827126 68262
STARLINK-4646           
1 53737U 22107AP  23331.50980100 -.00008742  00000+0 -53225-3 0  9994
2 53737  53.2197  44.2670 0001702  94.3350 265.7837 15.08808491 68816
STARLINK-4662           
1 53738U 22107AQ  23331.50242639 -.00006906  00000+0 -41649-3 0  9990
2 53738  53.2195  44.2197 0001724  97.0768 263.0420 15.08817757 68663
STARLINK-4607           
1 53740U 22107AS  23331.64597719 -.00004891  00000+0 -28958-3 0  9999
2 53740  53.2190  43.6896 0001487  75.3155 284.8002 15.08818431 68831
STARLINK-4614           
1 53741U 22107AT  23331.49188209 -.00000596  00000+0 -19349-4 0  9996
2 53741  53.2192  29.2612 0001312  80.0156 280.0984 15.08833230 69024
STARLINK-4637           
1 53742U 22107AU  23331.51716706 -.00000149  00000+0  87467-5 0  9999
2 53742  53.2184  44.3085 0001475  87.1718 272.9443 15.08835821 68814
STARLINK-4645           
1 53743U 22107AV  23331.53190429  .00000769  00000+0  66456-4 0  9991
2 53743  53.2179  44.4013 0001486 119.0719 241.0422 15.08800114 68034
STARLINK-4670           
1 53744U 22107AW  23331.48769911 -.00017895  00000+0 -11106-2 0  9994
2 53744  53.2189  44.1395 0001474 116.4617 243.6526 15.08788356 68813
STARLINK-4656           
1 53745U 22107AX  23331.99927211  .00001419  00000+0  10727-3 0  9992
2 53745  53.2195  42.3465 0001187  78.7005 281.4120 15.08826391 68105
STARLINK-4589           
1 53746U 22107AY  23331.52823191 -.00004459  00000+0 -26235-3 0  9994
2 53746  53.2195  44.3767 0001459  77.4406 282.6750 15.08823799 68815
STARLINK-4669           
1 53748U 22107BA  23331.47303278 -.00007797  00000+0 -47262-3 0  9990
2 53748  53.2197  44.7454 0001672  83.9548 276.1634 15.08817916 68804
STARLINK-4680           
1 53749U 22107BB  23331.47671022 -.00008545  00000+0 -51974-3 0  9993
2 53749  53.2192  44.7327 0001733 102.5356 257.5830 15.08818897 68802
STARLINK-4612           
1 53750U 22107BC  23331.48041119 -.00005435  00000+0 -32374-3 0  9992
2 53750  53.2183  44.7915 0001550 103.5502 256.5663 15.08829083 68811
SHERPA-LTC2             
1 53754U 22107BG  23331.85039388  .00011234  00000+0  65480-3 0  9998
2 53754  53.2367 161.9169 0457724 168.7931 192.3661 14.53074789 66164
